NUVIEW BRAVO            
1 62457U 24252D   26159.39853108 -.00000199  00000+0  00000+0 0  9997
2 62457   0.0699 144.5485 0001747 335.9359 196.6692  1.00271360  3706
THURAYA-4               
1 62483U 25001A   26159.01187307  .00000154  00000+0  00000+0 0  9999
2 62483   0.0253  66.4847 0000027  47.5901 190.9226  1.00272891  4086
TJS-14                  
1 62804U 25017A   26159.48998272  .00000131  00000+0  00000+0 0  9990
2 62804   0.8034 294.9608 0000718 280.0995 236.5732  1.00271216  5186
SPAINSAT NG I           
1 62852U 25021A   26158.92172574  .00000166  00000+0  00000+0 0  9993
2 62852   0.0027  10.8052 0000515 163.7161  82.6317  1.00269142  3898
QZS-6 (MICHIBIKI-6)     
1 62876U 25023A   26159.50422477 -.00000218  00000+0  00000+0 0  9995
2 62876   0.0307  52.7580 0001959  32.3546  83.8043  1.00273771  4867
ZHONGXING-10R           
1 63075U 25036A   26159.50821146 -.00000336  00000+0  00000+0 0  9998
2 63075   0.0432 250.5197 0003331 252.5275  47.3386  1.00269663  4872
TIANLIAN 2-04           
1 63361U 25062A   26159.35960074 -.00000121  00000+0  00000+0 0  9994
2 63361   4.3985 274.5657 0031484  10.5794 181.1165  1.00270295  4511
TIANLIAN 2-05           
1 63662U 25084A   26159.13389266  .00000138  00000+0  00000+0 0  9993
2 63662   4.4752 279.9356 0003391 146.1812 259.0168  1.00269882  4299
CHINASAT 3B             
1 64062U 25106A   26159.51781023 -.00000029  00000+0  00000+0 0  9992
2 64062   0.0395 141.9938 0002865 333.4961 135.1643  1.00271906  3970
SXM-10                  
1 64290U 25122A   26158.67904672 -.00000002  00000+0  00000+0 0  9997
2 64290   0.0171  15.4671 0001753 357.0715  11.8306  1.00270656  3582
CHINASAT 9C             
1 64470U 25132A   26159.50457145 -.00000232  00000+0  00000+0 0  9994
2 64470   0.0264 261.7681 0002803 175.8197  93.1683  1.00272288  4067
MTG-S1                  
1 64723U 25143A   26159.34306382 -.00000016  00000+0  00000+0 0  9995
2 64723   0.6111 336.9387 0001046  29.5831  10.2389  1.00271628  3330
DROR 1                  
1 64784U 25148A   26159.34289049 -.00000019  00000+0  00000+0 0  9990
2 64784   0.0086  11.2350 0002848  19.7531 345.1799  1.00271688  3201
SHIYAN-29               
1 65486U 25196A   26159.07723463 -.00000258  00000+0  00000+0 0  9991
2 65486  28.8110  18.6517 0010923 171.3837 188.3759  1.00256989  2782
NUSANTARA LIMA (NUSANT*)
1 65588U 25205A   26159.50864478 -.00000342  00000+0  00000+0 0  9999
2 65588   0.0291 147.0197 0000379 331.7500  74.0948  1.00272273  2630
TJS-20                  
1 66142U 25238A   26159.49867808  .00000036  00000+0  00000+0 0  9999
2 66142   5.4900 299.5835 0004723 157.3188  41.8967  1.00272828  2242
CMS-03 (GSAT-7R)        
1 66311U 25249B   26159.50101809 -.00000061  00000+0  00000+0 0  9992
2 66311   0.0250 261.3554 0001787 173.5702  76.3300  1.00271332  2268
VIASAT-3 F2             
1 66454U 25261A   26159.32807042 -.00000218  00000+0  00000+0 0  9990
2 66454   0.0477 143.1354 0000136 326.8787 185.8177  1.00271935  2701
SHIJIAN-28 (SJ-28)      
1 66549U 25277A   26159.29554105 -.00000346  00000+0  00000+0 0  9999
2 66549   4.5624 272.2754 0000505 354.2792 213.4068  1.00268181  2063
TJS-22                  
1 66990U 25290A   26158.90043508  .00000008  00000+0  00000+0 0  9995
2 66990   1.5506 286.4586 0001978 332.8621  27.5773  1.00272081  1933
TJS-23                  
1 67226U 25306A   26158.62813425  .00000027  00000+0  00000+0 0  9999
2 67226   5.6092 297.5405 0005117 165.3267 194.7678  1.00273064  1795
FENGYUN 4C              
1 67246U 25312A   26159.51264013 -.00000307  00000+0  00000+0 0  9992
2 67246   0.0308 123.1553 0000513  56.7086  34.5902  1.00270691  1694
ELEKTRO-L 5             
1 67756U 26028A   26159.07641325 -.00000082  00000+0  00000+0 0  9999
2 67756   0.2683 308.5191 0001605 181.8465 229.6581  1.00271248  1160
JAM-E JAM 1             
1 67757U 26028B   26159.20781984  .00000171  00000+0  00000+0 0  9999
2 67757   0.2800 299.5558 0000897 299.6400 126.1171  1.00271662  1039
