OBJECT_NAME,OBJECT_ID,EPOCH,MEAN_MOTION,ECCENTRICITY,INCLINATION,RA_OF_ASC_NODE,ARG_OF_PERICENTER,MEAN_ANOMALY,EPHEMERIS_TYPE,CLASSIFICATION_TYPE,NORAD_CAT_ID,ELEMENT_SET_NO,REV_AT_EPOCH,BSTAR,MEAN_MOTION_DOT,MEAN_MOTION_DDOT
NUVIEW BRAVO,2024-252D,2026-06-08T09:33:53.085312,1.00271360,.0001747,0.0699,144.5485,335.9359,196.6692,0,U,62457,999,370,0,-.199E-5,0
THURAYA-4,2025-001A,2026-06-08T00:17:05.833248,1.00272891,.00000278,0.0253,66.4847,47.5901,190.9226,0,U,62483,999,408,0,.154E-5,0
TJS-14,2025-017A,2026-06-08T11:45:34.507008,1.00271216,.0000718,0.8034,294.9608,280.0995,236.5732,0,U,62804,999,518,0,.131E-5,0
SPAINSAT NG I,2025-021A,2026-06-07T22:07:17.103936,1.00269142,.00005159,0.0027,10.8052,163.7161,82.6317,0,U,62852,999,389,0,.166E-5,0
QZS-6 (MICHIBIKI-6),2025-023A,2026-06-08T12:06:05.020128,1.00273771,.0001959,0.0307,52.7580,32.3546,83.8043,0,U,62876,999,486,0,-.218E-5,0
ZHONGXING-10R,2025-036A,2026-06-08T12:11:49.470144,1.00269663,.0003331,0.0432,250.5197,252.5275,47.3386,0,U,63075,999,487,0,-.336E-5,0
TIANLIAN 2-04,2025-062A,2026-06-08T08:37:49.503936,1.00270295,.0031484,4.3985,274.5657,10.5794,181.1165,0,U,63361,999,451,0,-.121E-5,0
TIANLIAN 2-05,2025-084A,2026-06-08T03:12:48.325824,1.00269882,.00033918,4.4752,279.9356,146.1812,259.0168,0,U,63662,999,429,0,.138E-5,0
CHINASAT 3B,2025-106A,2026-06-08T12:25:38.803872,1.00271906,.0002865,0.0395,141.9938,333.4961,135.1643,0,U,64062,999,397,0,-.29E-6,0
SXM-10,2025-122A,2026-06-07T16:17:49.636608,1.00270656,.00017537,0.0171,15.4671,357.0715,11.8306,0,U,64290,999,358,0,-.2E-7,0
CHINASAT 9C,2025-132A,2026-06-08T12:06:34.973280,1.00272288,.0002803,0.0264,261.7681,175.8197,93.1683,0,U,64470,999,406,0,-.232E-5,0
MTG-S1,2025-143A,2026-06-08T08:14:00.714048,1.00271628,.0001046,0.6111,336.9387,29.5831,10.2389,0,U,64723,999,333,0,-.16E-6,0
DROR 1,2025-148A,2026-06-08T08:13:45.738336,1.00271688,.0002848,0.0086,11.2350,19.7531,345.1799,0,U,64784,999,320,0,-.19E-6,0
SHIYAN-29,2025-196A,2026-06-08T01:51:13.072032,1.00256989,.00109234,28.8110,18.6517,171.3837,188.3759,0,U,65486,999,278,0,-.258E-5,0
NUSANTARA LIMA (NUSANTARA 5),2025-205A,2026-06-08T12:12:26.908992,1.00272273,.0000379,0.0291,147.0197,331.7500,74.0948,0,U,65588,999,263,0,-.342E-5,0
TJS-20,2025-238A,2026-06-08T11:58:05.786112,1.00272828,.0004723,5.4900,299.5835,157.3188,41.8967,0,U,66142,999,224,0,.36E-6,0
CMS-03 (GSAT-7R),2025-249B,2026-06-08T12:01:27.962976,1.00271332,.0001787,0.0250,261.3554,173.5702,76.3300,0,U,66311,999,226,0,-.61E-6,0
VIASAT-3 F2,2025-261A,2026-06-08T07:52:25.284288,1.00271935,.0000136,0.0477,143.1354,326.8787,185.8177,0,U,66454,999,270,0,-.218E-5,0
SHIJIAN-28 (SJ-28),2025-277A,2026-06-08T07:05:34.746720,1.00268181,.0000505,4.5624,272.2754,354.2792,213.4068,0,U,66549,999,206,0,-.346E-5,0
TJS-22,2025-290A,2026-06-07T21:36:37.590912,1.00272081,.0001978,1.5506,286.4586,332.8621,27.5773,0,U,66990,999,193,0,.8E-7,0
TJS-23,2025-306A,2026-06-07T15:04:30.799200,1.00273064,.0005117,5.6092,297.5405,165.3267,194.7678,0,U,67226,999,179,0,.27E-6,0
FENGYUN 4C,2025-312A,2026-06-08T12:18:12.107232,1.00270691,.0000513,0.0308,123.1553,56.7086,34.5902,0,U,67246,999,169,0,-.307E-5,0
ELEKTRO-L 5,2026-028A,2026-06-08T01:50:02.104800,1.00271248,.0001605,0.2683,308.5191,181.8465,229.6581,0,U,67756,999,116,0,-.82E-6,0
JAM-E JAM 1,2026-028B,2026-06-08T04:59:15.634176,1.00271662,.0000897,0.2800,299.5558,299.6400,126.1171,0,U,67757,999,103,0,.171E-5,0
